#aV2019  3 28  0  0  0.00000000     288 DD+AD WGS84 FIT  NGA
## 2046 345600.00000000   300.00000000 58570 0.0000000000000
+   31     1  2  3  5  6  7  8  9 10 11 12 13 14 15 16 17 18
+         19 20 21 22 23 24 25 26 27 28 29 30 31 32  0  0  0
+          0  0  0  0  0  0  0  0  0  0  0  0  0  0  0  0  0
+          0  0  0  0  0  0  0  0  0  0  0  0  0  0  0  0  0
+          0  0  0  0  0  0  0  0  0  0  0  0  0  0  0  0  0
++         2  2  2  2  2  2  2  2  2  2  2  2  2  2  2  2  2
++         2  2  2  2  2  2  2  2  2  2  2  2  2  2  0  0  0
++         0  0  0  0  0  0  0  0  0  0  0  0  0  0  0  0  0
++         0  0  0  0  0  0  0  0  0  0  0  0  0  0  0  0  0
++         0  0  0  0  0  0  0  0  0  0  0  0  0  0  0  0  0
%c cc cc ccc ccc cccc cccc cccc cccc ccccc ccccc ccccc ccccc
%c cc cc ccc ccc cccc cccc cccc cccc ccccc ccccc ccccc ccccc
%f  0.0000000  0.000000000  0.00000000000  0.000000000000000
%f  0.0000000  0.000000000  0.00000000000  0.000000000000000
%i    0    0    0    0      0      0      0      0         0
%i    0    0    0    0      0      0      0      0         0
/*      NGA, ST. LOUIS,MO.                                  
/*   EPHEMERIS COMPUTED FROM 2 DAYS OF DATA                 
/*   EPOCHA v3 SMOOTHER                                     
/*   G1762 IERS2010 SATAF SATAPC                            
*  2019  3 28  9 45  0.00000000
P  1 -13493.602575  18389.112089  13160.461198   -189.799850                    
V  1   1794.016901 -17140.649273  25764.164474     -0.078311                    
P  2  14496.191530   4517.970945 -21197.470423   -174.763798                    
V  2  -4805.856706  27964.907882   2436.461828     -0.095712                    
P  3 -21743.455521  12720.129746  -8323.252846    187.439132                    
V  3 -10846.491663    588.366311  29430.419856      0.007056                    
P  5  24714.926132   -657.875318 -10091.820178      1.177764                    
V  5 -11110.660980   6495.515923 -27757.716213     -0.000328                    
P  6   8842.635719  17080.860911 -18253.476697    244.670579                    
V  6  -6456.559591  22380.323187  17798.978352     -0.090869                    
P  7  -6419.285090  25501.875327   -228.450788      6.309312                    
V  7  -3153.890929  -1382.694739 -31950.796265     -0.074082                    
P  8 -18750.352539    510.351046  18925.108977   -137.802845                    
V  8 -16911.070301 -16855.433714 -16136.808150     -0.013809                    
P  9    660.900353  18697.535146 -18892.396890    438.221751                    
V  9 -18755.123629 -14931.658171 -15480.042705     -0.061015                    
P 10  -7525.102001 -13477.804821  21689.196432     86.897163                    
V 10  26078.002948  -8327.974228   3692.029634     -0.090550                    
P 11 -11552.005207  14594.240090  18496.900236   -637.131253                    
V 11  -7239.564549 -23724.043784  13565.215604      0.068696                    
P 12  23005.827080 -10703.281979  -7735.490451    256.289778                    
V 12   9781.311947   -173.873857  30326.605787     -0.033172                    
P 13  20381.838604   8632.339605  14594.983605    -70.039575                    
V 13  10565.130236  15550.207076 -23725.493557      0.014459                    
P 14 -18419.002096 -19245.387320   -760.623051    -86.686998                    
V 14   1061.057024  -2788.174942  31619.748812      0.014010                    
P 15  18148.787906  -3848.739254  18879.603233   -321.330668                    
V 15  18449.072205  16219.990514 -13843.162307      0.019127                    
P 16 -25393.589906   -443.700537  -8690.024602    -28.538489                    
V 16  10065.189979  -3741.005314 -29423.686719     -0.027351                    
P 17  13332.798178  21652.901671   8234.287909     30.225919                    
V 17  -8121.653227  -5843.878273  29918.950643      0.058714                    
P 18 -15356.268697   9589.283301  18904.623040     38.911682                    
V 18   2828.230900 -24997.930364  14743.156241      0.033928                    
P 19  18105.310736  19341.186968  -1187.092385   -337.247900                    
V 19   -902.361164   2325.570486  32234.919759      0.043242                    
P 20   2618.051721 -17320.795905  19821.812863    523.490846                    
V 20  23949.380959  -9028.999928 -11137.904662      0.003061                    
P 21   1279.520557 -26357.813300   4381.255323   -223.781160                    
V 21   3707.841698  -4002.461842 -30732.053895      0.074707                    
P 22 -24741.594404   9558.285024    -22.393673   -672.930879                    
V 22  -1705.227480  -3568.822521  31026.274713     -0.073172                    
P 23 -10845.027178  10997.620539 -21290.201723   -192.389986                    
V 23 -20812.223188 -18517.987109    616.754631      0.014062                    
P 24  14517.039073 -15178.719615  15908.302331    -64.005440                    
V 24  -1062.191449  20811.822886  20952.479526     -0.005577                    
P 25  13215.383743 -15942.099653 -16690.270990   -738.736976                    
V 25  20481.952808  -4411.522365  20941.125042     -0.047223                    
P 26 -19432.767106  -6328.326008 -17074.528006    160.997146                    
V 26  19924.817373  -8542.455233 -19354.497024      0.100066                    
P 27 -21970.656446  -9761.764489  11518.733920    -95.707710                    
V 27  -9579.846411 -11206.144321 -27245.080014     -0.083000                    
P 28   5069.374997  14229.640239  22451.903917    766.897609                    
V 28 -26365.025945   5745.425130   2467.667830      0.004857                    
P 29   5012.261091 -15178.110104 -21240.716242    238.995304                    
V 29  18859.606756  19097.562292  -9207.867947     -0.088913                    
P 30   1243.097987  24269.212481  10516.717493    -76.303300                    
V 30  -6596.907126  12111.863995 -27391.143586     -0.067414                    
P 31  -9591.017576 -15761.393359 -18935.207421     49.039165                    
V 31   7663.360289 -23017.497744  15712.837762     -0.026664                    
P 32 -16587.918428 -20170.813690   5216.139501   -159.636566                    
V 32   6683.520367   2392.267120  30677.025697      0.181782                    
EOF
